BEIDOU-3-G3-C61
1 45807U 20040A   23124.51360311 -.00000341  00000+0  00000+0 0  9999
2 45807   0.7798 323.7359 0005941 327.3335 226.5702  1.00271776 10640
